NORAD_CAT_ID,OBJECT_NAME,OBJECT_TYPE,EPOCH,MEAN_MOTION,ECCENTRICITY,INCLINATION,RA_OF_ASC_NODE,ARG_OF_PERICENTER,MEAN_ANOMALY,BSTAR,MEAN_MOTION_DOT,MEAN_MOTION_DDOT,TLE_LINE0,TLE_LINE1,TLE_LINE2,SEMIMAJOR_AXIS,PERIOD,APOGEE,PERIGEE,DECAYED
53925.0,STARLINK-5011,PAYLOAD,2023-04-30 19:58:29,15.0883998,6.83e-05,53.2167,319.778,107.7838,252.3228,0.00010954,1.456e-05,0.0,0 STARLINK-5011,1 53925U 22119AR  23120.83229111  .00001456  00000-0  10954-3 0  9992,2 53925  53.2167 319.7780 0000683 107.7838 252.3228 15.08839980 34244,6917.88,95.438,540.218,539.273,0.0
53925.0,STARLINK-5011,PAYLOAD,2023-05-01 19:49:17,15.08841677,6.74e-05,53.2164,315.3181,82.8312,277.2757,7.6087e-05,9.24e-06,0.0,0 STARLINK-5011,1 53925U 22119AR  23121.82589157  .00000924  00000-0  76087-4 0  9990,2 53925  53.2164 315.3181 0000674  82.8312 277.2757 15.08841677 33976,6917.875,95.437,540.207,539.274,0.0
53925.0,STARLINK-5011,PAYLOAD,2023-05-02 19:40:03,15.08843836,7.27e-05,53.2164,310.8573,77.9411,282.1663,0.00017725,2.535e-05,0.0,0 STARLINK-5011,1 53925U 22119AR  23122.81949045  .00002535  00000-0  17725-3 0  9999,2 53925  53.2164 310.8573 0000727  77.9411 282.1663 15.08843836 34549,6917.869,95.437,540.237,539.231,0.0
53925.0,STARLINK-5011,PAYLOAD,2023-05-03 05:12:22,15.08840108,7.55e-05,53.2167,309.0718,77.8785,282.2291,8.4269e-05,1.054e-05,0.0,0 STARLINK-5011,1 53925U 22119AR  23123.21693188  .00001054  00000-0  84269-4 0  9991,2 53925  53.2167 309.0718 0000755  77.8785 282.2291 15.08840108 34184,6917.88,95.438,540.267,539.223,0.0
53925.0,STARLINK-5011,PAYLOAD,2023-05-03 21:06:14,15.08843033,7.15e-05,53.2168,306.0994,94.6732,265.4341,9.4711e-05,1.22e-05,0.0,0 STARLINK-5011,1 53925U 22119AR  23123.87933199  .00001220  00000-0  94711-4 0  9990,2 53925  53.2168 306.0994 0000715  94.6732 265.4341 15.08843033 34700,6917.871,95.437,540.231,539.241,0.0
53925.0,STARLINK-5011,PAYLOAD,2023-05-04 06:38:33,15.08838593,7.26e-05,53.2171,304.3155,99.4426,260.6648,5.2224e-05,5.44e-06,0.0,0 STARLINK-5011,1 53925U 22119AR  23124.27677575  .00000544  00000-0  52224-4 0  9999,2 53925  53.2171 304.3155 0000726  99.4426 260.6648 15.08838593 34341,6917.885,95.438,540.252,539.247,0.0
53925.0,STARLINK-5011,PAYLOAD,2023-05-04 20:57:00,15.08848355,7.54e-05,53.2168,301.6385,99.5045,260.6033,0.00010857,1.441e-05,0.0,0 STARLINK-5011,1 53925U 22119AR  23124.87292821  .00001441  00000-0  10857-3 0  9994,2 53925  53.2168 301.6385 0000754  99.5045 260.6033 15.08848355 34436,6917.855,95.437,540.241,539.198,0.0
53925.0,STARLINK-5011,PAYLOAD,2023-05-05 04:53:57,15.08841841,6.31e-05,53.2171,300.1531,89.4185,270.688,7.836e-05,9.6e-06,0.0,0 STARLINK-5011,1 53925U 22119AR  23125.20413293  .00000960  00000-0  78360-4 0  9999,2 53925  53.2171 300.1531 0000631  89.4185 270.6880 15.08841841 34483,6917.875,95.437,540.176,539.303,0.0
53925.0,STARLINK-5011,PAYLOAD,2023-05-05 19:12:25,15.08842354,6.95e-05,53.2171,297.4756,95.7681,264.3391,5.1003e-05,5.24e-06,0.0,0 STARLINK-5011,1 53925U 22119AR  23125.80029431  .00000524  00000-0  51003-4 0  9993,2 53925  53.2171 297.4756 0000695  95.7681 264.3391 15.08842354 34994,6917.873,95.437,540.219,539.257,0.0
53925.0,STARLINK-5011,PAYLOAD,2023-05-06 04:44:44,15.08840784,6.66e-05,53.2166,295.6912,102.2844,257.8223,2.2839e-05,7.6e-07,0.0,0 STARLINK-5011,1 53925U 22119AR  23126.19773638  .00000076  00000-0  22839-4 0  9998,2 53925  53.2166 295.6912 0000666 102.2844 257.8223 15.08840784 35059,6917.878,95.438,540.204,539.282,0.0
53925.0,STARLINK-5011,PAYLOAD,2023-05-06 20:38:34,15.08856236,7.16e-05,53.2168,292.7174,90.628,269.4794,0.00013522,1.866e-05,0.0,0 STARLINK-5011,1 53925U 22119AR  23126.86012456  .00001866  00000-0  13522-3 0  9992,2 53925  53.2168 292.7174 0000716  90.6280 269.4794 15.08856236 34734,6917.831,95.437,540.191,539.2,0.0
53925.0,STARLINK-5011,PAYLOAD,2023-05-07 04:35:31,15.0884008,5.77e-05,53.2169,291.2313,92.8444,267.2615,6.2972e-05,7.15e-06,0.0,0 STARLINK-5011,1 53925U 22119AR  23127.19133550  .00000715  00000-0  62972-4 0  9994,2 53925  53.2169 291.2313 0000577  92.8444 267.2615 15.08840080 34788,6917.88,95.438,540.144,539.346,0.0
53925.0,STARLINK-5011,PAYLOAD,2023-05-07 17:18:36,15.08837953,7.86e-05,53.2163,288.8521,92.7106,267.3976,5.5049e-05,5.89e-06,0.0,0 STARLINK-5011,1 53925U 22119AR  23127.72125924  .00000589  00000-0  55049-4 0  9995,2 53925  53.2163 288.8521 0000786  92.7106 267.3976 15.08837953 35283,6917.887,95.438,540.295,539.208,0.0
53925.0,STARLINK-5011,PAYLOAD,2023-05-08 17:09:23,15.0884725,6.42e-05,53.2159,284.3935,74.0917,286.0146,0.00021462,3.13e-05,0.0,0 STARLINK-5011,1 53925U 22119AR  23128.71485529  .00003130  00000-0  21462-3 0  9991,2 53925  53.2159 284.3935 0000642  74.0917 286.0146 15.08847250 35011,6917.858,95.437,540.167,539.279,0.0
53925.0,STARLINK-5011,PAYLOAD,2023-05-09 13:49:24,15.08833665,8.15e-05,53.2163,280.5265,82.1562,277.9523,4.8623e-05,4.86e-06,0.0,0 STARLINK-5011,1 53925U 22119AR  23129.57598161  .00000486  00000-0  48623-4 0  9993,2 53925  53.2163 280.5265 0000815  82.1562 277.9523 15.08833665 35561,6917.9,95.438,540.329,539.201,0.0
53925.0,STARLINK-5011,PAYLOAD,2023-05-10 12:04:48,15.08837922,8.36e-05,53.2162,276.3641,90.6626,269.4462,-0.00010273,-1.922e-05,0.0,0 STARLINK-5011,1 53925U 22119AR  23130.50333949 -.00001922  00000-0 -10273-3 0  9996,2 53925  53.2162 276.3641 0000836  90.6626 269.4462 15.08837922 35703,6917.887,95.438,540.33,539.173,0.0
53925.0,STARLINK-5011,PAYLOAD,2023-05-10 16:50:58,15.08791466,0.0001091,53.2178,275.474,81.9445,278.1671,0.00078518,0.00012214,0.0,0 STARLINK-5011,1 53925U 22119AR  23130.70207080  .00012214  00000-0  78518-3 0  9994,2 53925  53.2178 275.4740 0001091  81.9445 278.1671 15.08791466 35314,6918.029,95.441,540.648,539.139,0.0
53925.0,STARLINK-5011,PAYLOAD,2023-05-11 16:41:44,15.08849605,6.4e-05,53.2159,271.013,111.569,248.537,1.671e-05,-2.2e-07,0.0,0 STARLINK-5011,1 53925U 22119AR  23131.69565608 -.00000022  00000-0  16710-4 0  9998,2 53925  53.2159 271.0130 0000640 111.5690 248.5370 15.08849605 35461,6917.851,95.437,540.159,539.273,0.0
53925.0,STARLINK-5011,PAYLOAD,2023-05-12 02:14:03,15.08848052,7.99e-05,53.2172,269.2245,69.6944,290.4134,3.3356e-05,2.43e-06,0.0,0 STARLINK-5011,1 53925U 22119AR  23132.09309579  .00000243  00000-0  33356-4 0  9995,2 53925  53.2172 269.2245 0000799  69.6944 290.4134 15.08848052 35944,6917.856,95.437,540.274,539.168,0.0
53925.0,STARLINK-5011,PAYLOAD,2023-05-12 16:32:32,15.08834579,7.47e-05,53.2186,266.5489,80.6114,279.4963,4.5783e-05,4.41e-06,0.0,0 STARLINK-5011,1 53925U 22119AR  23132.68926695  .00000441  00000-0  45783-4 0  9991,2 53925  53.2186 266.5489 0000747  80.6114 279.4963 15.08834579 35614,6917.897,95.438,540.279,539.245,0.0
53925.0,STARLINK-5011,PAYLOAD,2023-05-13 02:04:51,15.08841431,7.44e-05,53.2177,264.7683,86.862,273.2457,0.00010317,1.355e-05,0.0,0 STARLINK-5011,1 53925U 22119AR  23133.08670167  .00001355  00000-0  10317-3 0  9995,2 53925  53.2177 264.7683 0000744  86.8620 273.2457 15.08841431 35678,6917.876,95.437,540.256,539.226,0.0
53925.0,STARLINK-5011,PAYLOAD,2023-05-13 13:12:32,15.08845634,0.0001124,53.2191,262.6868,69.0848,291.0264,7.1665e-05,8.53e-06,0.0,0 STARLINK-5011,1 53925U 22119AR  23133.55038087  .00000853  00000-0  71665-4 0  9992,2 53925  53.2191 262.6868 0001124  69.0848 291.0264 15.08845634 36162,6917.863,95.437,540.506,538.951,0.0
53925.0,STARLINK-5011,PAYLOAD,2023-05-13 16:23:18,15.08849728,9.55e-05,53.2183,262.0916,74.2661,285.8436,9.2202e-05,1.18e-05,0.0,0 STARLINK-5011,1 53925U 22119AR  23133.68285679  .00001180  00000-0  92202-4 0  9991,2 53925  53.2183 262.0916 0000955  74.2661 285.8436 15.08849728 36185,6917.851,95.437,540.376,539.055,0.0
53925.0,STARLINK-5011,PAYLOAD,2023-05-14 13:03:20,15.08832117,8.85e-05,53.218,258.2217,93.1073,267.002,5.2368e-05,5.46e-06,0.0,0 STARLINK-5011,1 53925U 22119AR  23134.54398805  .00000546  00000-0  52368-4 0  9997,2 53925  53.2180 258.2217 0000885  93.1073 267.0020 15.08832117 36312,6917.904,95.438,540.382,539.157,0.0
53925.0,STARLINK-5011,PAYLOAD,2023-05-14 17:49:29,15.08840676,8.3e-05,53.2172,257.3291,105.3384,254.77,4.8077e-05,4.78e-06,0.0,0 STARLINK-5011,1 53925U 22119AR  23134.74270278  .00000478  00000-0  48077-4 0  9998,2 53925  53.2172 257.3291 0000830 105.3384 254.7700 15.08840676 35929,6917.878,95.438,540.318,539.169,0.0
53925.0,STARLINK-5011,PAYLOAD,2023-05-15 12:54:07,15.08841131,9.53e-05,53.2173,253.7596,106.6919,253.4178,3.5345e-05,2.75e-06,0.0,0 STARLINK-5011,1 53925U 22119AR  23135.53758344  .00000275  00000-0  35345-4 0  9990,2 53925  53.2173 253.7596 0000953 106.6919 253.4178 15.08841131 36464,6917.877,95.437,540.401,539.083,0.0
53925.0,STARLINK-5011,PAYLOAD,2023-05-15 14:29:30,15.08840356,8.48e-05,53.2169,253.4641,92.0446,268.0644,5.074e-05,5.2e-06,0.0,0 STARLINK-5011,1 53925U 22119AR  23135.60382394  .00000520  00000-0  50740-4 0  9995,2 53925  53.2169 253.4641 0000848  92.0446 268.0644 15.08840356 36472,6917.879,95.438,540.331,539.158,0.0
53925.0,STARLINK-5011,PAYLOAD,2023-05-16 12:44:55,15.08824939,9.75e-05,53.2175,249.3017,96.2084,263.9019,0.00022439,3.284e-05,0.0,0 STARLINK-5011,1 53925U 22119AR  23136.53119213  .00003284  00000-0  22439-3 0  9999,2 53925  53.2175 249.3017 0000975  96.2084 263.9019 15.08824939 36193,6917.926,95.439,540.466,539.117,0.0
53925.0,STARLINK-5011,PAYLOAD,2023-05-16 23:52:36,15.08842868,9.6e-05,53.2177,247.2207,90.4415,269.6687,3.3118e-05,2.39e-06,0.0,0 STARLINK-5011,1 53925U 22119AR  23136.99486474  .00000239  00000-0  33118-4 0  9999,2 53925  53.2177 247.2207 0000960  90.4415 269.6687 15.08842868 36264,6917.872,95.437,540.401,539.073,0.0
53925.0,STARLINK-5011,PAYLOAD,2023-05-17 11:00:18,15.08834672,9.24e-05,53.2186,245.1448,78.1715,281.938,9.4838e-05,1.222e-05,0.0,0 STARLINK-5011,1 53925U 22119AR  23137.45854989  .00001222  00000-0  94838-4 0  9990,2 53925  53.2186 245.1448 0000924  78.1715 281.9380 15.08834672 36333,6917.897,95.438,540.401,539.122,0.0
